[
  {
    "zipcode": "33195",
    "lat": 2978071.991707027,
    "lon": -8941252.249275621,
    "popup": "<strong>ZIP Code: 33195</strong><br>\n    \ud83d\udc69\u200d\u2695\ufe0f <strong>Nurses:</strong><br>- Nurse 95A<br>- Nurse 95B<br>\n    \ud83e\uddd1\u200d\u2695\ufe0f <strong>HHAs:</strong><br>- HHA 95X<br>- HHA 95Y"
  },
  {
    "zipcode": "33177",
    "lat": 2949245.5352576314,
    "lon": -8950586.969543774,
    "popup": "<strong>ZIP Code: 33177</strong><br>\n    \ud83d\udc69\u200d\u2695\ufe0f <strong>Nurses:</strong><br>- Nurse 77A<br>- Nurse 77B<br>\n    \ud83e\uddd1\u200d\u2695\ufe0f <strong>HHAs:</strong><br>- HHA 77X<br>- HHA 77Y"
  },
  {
    "zipcode": "33140",
    "lat": 2976526.881737429,
    "lon": -8921878.704622623,
    "popup": "<strong>ZIP Code: 33140</strong><br>\n    \ud83d\udc69\u200d\u2695\ufe0f <strong>Nurses:</strong><br>- Nurse 40A<br>- Nurse 40B<br>\n    \ud83e\uddd1\u200d\u2695\ufe0f <strong>HHAs:</strong><br>- HHA 40X<br>- HHA 40Y"
  },
  {
    "zipcode": "33161",
    "lat": 2985907.893655045,
    "lon": -8925858.582272748,
    "popup": "<strong>ZIP Code: 33161</strong><br>\n    \ud83d\udc69\u200d\u2695\ufe0f <strong>Nurses:</strong><br>- Nurse 61A<br>- Nurse 61B<br>\n    \ud83e\uddd1\u200d\u2695\ufe0f <strong>HHAs:</strong><br>- HHA 61X<br>- HHA 61Y"
  },
  {
    "zipcode": "33143",
    "lat": 2962253.102580008,
    "lon": -8938626.734313194,
    "popup": "<strong>ZIP Code: 33143</strong><br>\n    \ud83d\udc69\u200d\u2695\ufe0f <strong>Nurses:</strong><br>- Nurse 43A<br>- Nurse 43B<br>\n    \ud83e\uddd1\u200d\u2695\ufe0f <strong>HHAs:</strong><br>- HHA 43X<br>- HHA 43Y"
  },
  {
    "zipcode": "33193",
    "lat": 2961926.157304417,
    "lon": -8977813.09237025,
    "popup": "<strong>ZIP Code: 33193</strong><br>\n    \ud83d\udc69\u200d\u2695\ufe0f <strong>Nurses:</strong><br>- Nurse 93A<br>- Nurse 93B<br>\n    \ud83e\uddd1\u200d\u2695\ufe0f <strong>HHAs:</strong><br>- HHA 93X<br>- HHA 93Y"
  },
  {
    "zipcode": "33257",
    "lat": 2950213.8062891983,
    "lon": -8944620.85061522,
    "popup": "<strong>ZIP Code: 33257</strong><br>\n    \ud83d\udc69\u200d\u2695\ufe0f <strong>Nurses:</strong><br>- Nurse 57A<br>- Nurse 57B<br>\n    \ud83e\uddd1\u200d\u2695\ufe0f <strong>HHAs:</strong><br>- HHA 57X<br>- HHA 57Y"
  },
  {
    "zipcode": "33192",
    "lat": 2972507.7461585603,
    "lon": -8944640.197928077,
    "popup": "<strong>ZIP Code: 33192</strong><br>\n    \ud83d\udc69\u200d\u2695\ufe0f <strong>Nurses:</strong><br>- Nurse 92A<br>- Nurse 92B<br>\n    \ud83e\uddd1\u200d\u2695\ufe0f <strong>HHAs:</strong><br>- HHA 92X<br>- HHA 92Y"
  },
  {
    "zipcode": "33137",
    "lat": 2976339.645851937,
    "lon": -8926072.319612384,
    "popup": "<strong>ZIP Code: 33137</strong><br>\n    \ud83d\udc69\u200d\u2695\ufe0f <strong>Nurses:</strong><br>- Nurse 37A<br>- Nurse 37B<br>\n    \ud83e\uddd1\u200d\u2695\ufe0f <strong>HHAs:</strong><br>- HHA 37X<br>- HHA 37Y"
  },
  {
    "zipcode": "33144",
    "lat": 2969535.471481474,
    "lon": -8943329.757217176,
    "popup": "<strong>ZIP Code: 33144</strong><br>\n    \ud83d\udc69\u200d\u2695\ufe0f <strong>Nurses:</strong><br>- Nurse 44A<br>- Nurse 44B<br>\n    \ud83e\uddd1\u200d\u2695\ufe0f <strong>HHAs:</strong><br>- HHA 44X<br>- HHA 44Y"
  },
  {
    "zipcode": "33030",
    "lat": 2935266.7782728444,
    "lon": -8979794.610256413,
    "popup": "<strong>ZIP Code: 33030</strong><br>\n    \ud83d\udc69\u200d\u2695\ufe0f <strong>Nurses:</strong><br>- Nurse 30A<br>- Nurse 30B<br>\n    \ud83e\uddd1\u200d\u2695\ufe0f <strong>HHAs:</strong><br>- HHA 30X<br>- HHA 30Y"
  },
  {
    "zipcode": "33160",
    "lat": 2991113.0339304986,
    "lon": -8920761.965275628,
    "popup": "<strong>ZIP Code: 33160</strong><br>\n    \ud83d\udc69\u200d\u2695\ufe0f <strong>Nurses:</strong><br>- Nurse 60A<br>- Nurse 60B<br>\n    \ud83e\uddd1\u200d\u2695\ufe0f <strong>HHAs:</strong><br>- HHA 60X<br>- HHA 60Y"
  },
  {
    "zipcode": "33172",
    "lat": 2972856.256363204,
    "lon": -8945663.723018512,
    "popup": "<strong>ZIP Code: 33172</strong><br>\n    \ud83d\udc69\u200d\u2695\ufe0f <strong>Nurses:</strong><br>- Nurse 72A<br>- Nurse 72B<br>\n    \ud83e\uddd1\u200d\u2695\ufe0f <strong>HHAs:</strong><br>- HHA 72X<br>- HHA 72Y"
  },
  {
    "zipcode": "33192",
    "lat": 2975000.8458048925,
    "lon": -8944710.444938023,
    "popup": "<strong>ZIP Code: 33192</strong><br>\n    \ud83d\udc69\u200d\u2695\ufe0f <strong>Nurses:</strong><br>- Nurse 92A<br>- Nurse 92B<br>\n    \ud83e\uddd1\u200d\u2695\ufe0f <strong>HHAs:</strong><br>- HHA 92X<br>- HHA 92Y"
  },
  {
    "zipcode": "33002",
    "lat": 2982470.954012387,
    "lon": -8939443.3806554,
    "popup": "<strong>ZIP Code: 33002</strong><br>\n    \ud83d\udc69\u200d\u2695\ufe0f <strong>Nurses:</strong><br>- Nurse 02A<br>- Nurse 02B<br>\n    \ud83e\uddd1\u200d\u2695\ufe0f <strong>HHAs:</strong><br>- HHA 02X<br>- HHA 02Y"
  },
  {
    "zipcode": "33139",
    "lat": 2972410.7836033734,
    "lon": -8922097.326673277,
    "popup": "<strong>ZIP Code: 33139</strong><br>\n    \ud83d\udc69\u200d\u2695\ufe0f <strong>Nurses:</strong><br>- Nurse 39A<br>- Nurse 39B<br>\n    \ud83e\uddd1\u200d\u2695\ufe0f <strong>HHAs:</strong><br>- HHA 39X<br>- HHA 39Y"
  },
  {
    "zipcode": "33156",
    "lat": 2958108.6617681603,
    "lon": -8938715.173006902,
    "popup": "<strong>ZIP Code: 33156</strong><br>\n    \ud83d\udc69\u200d\u2695\ufe0f <strong>Nurses:</strong><br>- Nurse 56A<br>- Nurse 56B<br>\n    \ud83e\uddd1\u200d\u2695\ufe0f <strong>HHAs:</strong><br>- HHA 56X<br>- HHA 56Y"
  },
  {
    "zipcode": "33155",
    "lat": 2966508.758814692,
    "lon": -8940195.548445527,
    "popup": "<strong>ZIP Code: 33155</strong><br>\n    \ud83d\udc69\u200d\u2695\ufe0f <strong>Nurses:</strong><br>- Nurse 55A<br>- Nurse 55B<br>\n    \ud83e\uddd1\u200d\u2695\ufe0f <strong>HHAs:</strong><br>- HHA 55X<br>- HHA 55Y"
  },
  {
    "zipcode": "33133",
    "lat": 2965722.8120126068,
    "lon": -8932466.189173605,
    "popup": "<strong>ZIP Code: 33133</strong><br>\n    \ud83d\udc69\u200d\u2695\ufe0f <strong>Nurses:</strong><br>- Nurse 33A<br>- Nurse 33B<br>\n    \ud83e\uddd1\u200d\u2695\ufe0f <strong>HHAs:</strong><br>- HHA 33X<br>- HHA 33Y"
  },
  {
    "zipcode": "33013",
    "lat": 2982389.973045713,
    "lon": -8935871.955812482,
    "popup": "<strong>ZIP Code: 33013</strong><br>\n    \ud83d\udc69\u200d\u2695\ufe0f <strong>Nurses:</strong><br>- Nurse 13A<br>- Nurse 13B<br>\n    \ud83e\uddd1\u200d\u2695\ufe0f <strong>HHAs:</strong><br>- HHA 13X<br>- HHA 13Y"
  },
  {
    "zipcode": "33149",
    "lat": 2964827.0472577703,
    "lon": -8923425.086534126,
    "popup": "<strong>ZIP Code: 33149</strong><br>\n    \ud83d\udc69\u200d\u2695\ufe0f <strong>Nurses:</strong><br>- Nurse 49A<br>- Nurse 49B<br>\n    \ud83e\uddd1\u200d\u2695\ufe0f <strong>HHAs:</strong><br>- HHA 49X<br>- HHA 49Y"
  },
  {
    "zipcode": "33146",
    "lat": 2964519.330529616,
    "lon": -8935917.653895207,
    "popup": "<strong>ZIP Code: 33146</strong><br>\n    \ud83d\udc69\u200d\u2695\ufe0f <strong>Nurses:</strong><br>- Nurse 46A<br>- Nurse 46B<br>\n    \ud83e\uddd1\u200d\u2695\ufe0f <strong>HHAs:</strong><br>- HHA 46X<br>- HHA 46Y"
  },
  {
    "zipcode": "33116",
    "lat": 2958419.8418080336,
    "lon": -8947160.365172219,
    "popup": "<strong>ZIP Code: 33116</strong><br>\n    \ud83d\udc69\u200d\u2695\ufe0f <strong>Nurses:</strong><br>- Nurse 16A<br>- Nurse 16B<br>\n    \ud83e\uddd1\u200d\u2695\ufe0f <strong>HHAs:</strong><br>- HHA 16X<br>- HHA 16Y"
  },
  {
    "zipcode": "33196",
    "lat": 2956510.932698608,
    "lon": -8978495.288882881,
    "popup": "<strong>ZIP Code: 33196</strong><br>\n    \ud83d\udc69\u200d\u2695\ufe0f <strong>Nurses:</strong><br>- Nurse 96A<br>- Nurse 96B<br>\n    \ud83e\uddd1\u200d\u2695\ufe0f <strong>HHAs:</strong><br>- HHA 96X<br>- HHA 96Y"
  },
  {
    "zipcode": "33033",
    "lat": 2935281.495265029,
    "lon": -8950149.048841935,
    "popup": "<strong>ZIP Code: 33033</strong><br>\n    \ud83d\udc69\u200d\u2695\ufe0f <strong>Nurses:</strong><br>- Nurse 33A<br>- Nurse 33B<br>\n    \ud83e\uddd1\u200d\u2695\ufe0f <strong>HHAs:</strong><br>- HHA 33X<br>- HHA 33Y"
  },
  {
    "zipcode": "33170",
    "lat": 2944400.7569382265,
    "lon": -8973593.760453735,
    "popup": "<strong>ZIP Code: 33170</strong><br>\n    \ud83d\udc69\u200d\u2695\ufe0f <strong>Nurses:</strong><br>- Nurse 70A<br>- Nurse 70B<br>\n    \ud83e\uddd1\u200d\u2695\ufe0f <strong>HHAs:</strong><br>- HHA 70X<br>- HHA 70Y"
  },
  {
    "zipcode": "33109",
    "lat": 2969481.1240870846,
    "lon": -8921449.070894487,
    "popup": "<strong>ZIP Code: 33109</strong><br>\n    \ud83d\udc69\u200d\u2695\ufe0f <strong>Nurses:</strong><br>- Nurse 09A<br>- Nurse 09B<br>\n    \ud83e\uddd1\u200d\u2695\ufe0f <strong>HHAs:</strong><br>- HHA 09X<br>- HHA 09Y"
  },
  {
    "zipcode": "33197",
    "lat": 2949017.2419903986,
    "lon": -8945613.919471875,
    "popup": "<strong>ZIP Code: 33197</strong><br>\n    \ud83d\udc69\u200d\u2695\ufe0f <strong>Nurses:</strong><br>- Nurse 97A<br>- Nurse 97B<br>\n    \ud83e\uddd1\u200d\u2695\ufe0f <strong>HHAs:</strong><br>- HHA 97X<br>- HHA 97Y"
  },
  {
    "zipcode": "33182",
    "lat": 2972751.0784850386,
    "lon": -8950919.669022748,
    "popup": "<strong>ZIP Code: 33182</strong><br>\n    \ud83d\udc69\u200d\u2695\ufe0f <strong>Nurses:</strong><br>- Nurse 82A<br>- Nurse 82B<br>\n    \ud83e\uddd1\u200d\u2695\ufe0f <strong>HHAs:</strong><br>- HHA 82X<br>- HHA 82Y"
  },
  {
    "zipcode": "33126",
    "lat": 2972039.1188997836,
    "lon": -8938823.404545689,
    "popup": "<strong>ZIP Code: 33126</strong><br>\n    \ud83d\udc69\u200d\u2695\ufe0f <strong>Nurses:</strong><br>- Nurse 26A<br>- Nurse 26B<br>\n    \ud83e\uddd1\u200d\u2695\ufe0f <strong>HHAs:</strong><br>- HHA 26X<br>- HHA 26Y"
  },
  {
    "zipcode": "33176",
    "lat": 2956899.865991141,
    "lon": -8945507.483640151,
    "popup": "<strong>ZIP Code: 33176</strong><br>\n    \ud83d\udc69\u200d\u2695\ufe0f <strong>Nurses:</strong><br>- Nurse 76A<br>- Nurse 76B<br>\n    \ud83e\uddd1\u200d\u2695\ufe0f <strong>HHAs:</strong><br>- HHA 76X<br>- HHA 76Y"
  },
  {
    "zipcode": "33135",
    "lat": 2970232.3376289154,
    "lon": -8931732.487276247,
    "popup": "<strong>ZIP Code: 33135</strong><br>\n    \ud83d\udc69\u200d\u2695\ufe0f <strong>Nurses:</strong><br>- Nurse 35A<br>- Nurse 35B<br>\n    \ud83e\uddd1\u200d\u2695\ufe0f <strong>HHAs:</strong><br>- HHA 35X<br>- HHA 35Y"
  },
  {
    "zipcode": "33157",
    "lat": 2950503.40814835,
    "lon": -8943685.456111623,
    "popup": "<strong>ZIP Code: 33157</strong><br>\n    \ud83d\udc69\u200d\u2695\ufe0f <strong>Nurses:</strong><br>- Nurse 57A<br>- Nurse 57B<br>\n    \ud83e\uddd1\u200d\u2695\ufe0f <strong>HHAs:</strong><br>- HHA 57X<br>- HHA 57Y"
  },
  {
    "zipcode": "33184",
    "lat": 2969407.0668155793,
    "lon": -8951024.10166648,
    "popup": "<strong>ZIP Code: 33184</strong><br>\n    \ud83d\udc69\u200d\u2695\ufe0f <strong>Nurses:</strong><br>- Nurse 84A<br>- Nurse 84B<br>\n    \ud83e\uddd1\u200d\u2695\ufe0f <strong>HHAs:</strong><br>- HHA 84X<br>- HHA 84Y"
  },
  {
    "zipcode": "33174",
    "lat": 2969700.435775292,
    "lon": -8945663.837543665,
    "popup": "<strong>ZIP Code: 33174</strong><br>\n    \ud83d\udc69\u200d\u2695\ufe0f <strong>Nurses:</strong><br>- Nurse 74A<br>- Nurse 74B<br>\n    \ud83e\uddd1\u200d\u2695\ufe0f <strong>HHAs:</strong><br>- HHA 74X<br>- HHA 74Y"
  },
  {
    "zipcode": "33054",
    "lat": 2987602.6337409164,
    "lon": -8934303.231224045,
    "popup": "<strong>ZIP Code: 33054</strong><br>\n    \ud83d\udc69\u200d\u2695\ufe0f <strong>Nurses:</strong><br>- Nurse 54A<br>- Nurse 54B<br>\n    \ud83e\uddd1\u200d\u2695\ufe0f <strong>HHAs:</strong><br>- HHA 54X<br>- HHA 54Y"
  },
  {
    "zipcode": "33166",
    "lat": 2977608.4869966498,
    "lon": -8940191.66762859,
    "popup": "<strong>ZIP Code: 33166</strong><br>\n    \ud83d\udc69\u200d\u2695\ufe0f <strong>Nurses:</strong><br>- Nurse 66A<br>- Nurse 66B<br>\n    \ud83e\uddd1\u200d\u2695\ufe0f <strong>HHAs:</strong><br>- HHA 66X<br>- HHA 66Y"
  },
  {
    "zipcode": "33165",
    "lat": 2966312.2038878626,
    "lon": -8945515.760117536,
    "popup": "<strong>ZIP Code: 33165</strong><br>\n    \ud83d\udc69\u200d\u2695\ufe0f <strong>Nurses:</strong><br>- Nurse 65A<br>- Nurse 65B<br>\n    \ud83e\uddd1\u200d\u2695\ufe0f <strong>HHAs:</strong><br>- HHA 65X<br>- HHA 65Y"
  },
  {
    "zipcode": "33142",
    "lat": 2975778.2154653096,
    "lon": -8932162.392050842,
    "popup": "<strong>ZIP Code: 33142</strong><br>\n    \ud83d\udc69\u200d\u2695\ufe0f <strong>Nurses:</strong><br>- Nurse 42A<br>- Nurse 42B<br>\n    \ud83e\uddd1\u200d\u2695\ufe0f <strong>HHAs:</strong><br>- HHA 42X<br>- HHA 42Y"
  },
  {
    "zipcode": "33283",
    "lat": 2960808.965018026,
    "lon": -8948762.717613677,
    "popup": "<strong>ZIP Code: 33283</strong><br>\n    \ud83d\udc69\u200d\u2695\ufe0f <strong>Nurses:</strong><br>- Nurse 83A<br>- Nurse 83B<br>\n    \ud83e\uddd1\u200d\u2695\ufe0f <strong>HHAs:</strong><br>- HHA 83X<br>- HHA 83Y"
  },
  {
    "zipcode": "33122",
    "lat": 2974208.595707472,
    "lon": -8938918.259995976,
    "popup": "<strong>ZIP Code: 33122</strong><br>\n    \ud83d\udc69\u200d\u2695\ufe0f <strong>Nurses:</strong><br>- Nurse 22A<br>- Nurse 22B<br>\n    \ud83e\uddd1\u200d\u2695\ufe0f <strong>HHAs:</strong><br>- HHA 22X<br>- HHA 22Y"
  },
  {
    "zipcode": "33131",
    "lat": 2969611.244801497,
    "lon": -8925893.15242797,
    "popup": "<strong>ZIP Code: 33131</strong><br>\n    \ud83d\udc69\u200d\u2695\ufe0f <strong>Nurses:</strong><br>- Nurse 31A<br>- Nurse 31B<br>\n    \ud83e\uddd1\u200d\u2695\ufe0f <strong>HHAs:</strong><br>- HHA 31X<br>- HHA 31Y"
  },
  {
    "zipcode": "33168",
    "lat": 2985799.0737295905,
    "lon": -8928814.233688386,
    "popup": "<strong>ZIP Code: 33168</strong><br>\n    \ud83d\udc69\u200d\u2695\ufe0f <strong>Nurses:</strong><br>- Nurse 68A<br>- Nurse 68B<br>\n    \ud83e\uddd1\u200d\u2695\ufe0f <strong>HHAs:</strong><br>- HHA 68X<br>- HHA 68Y"
  },
  {
    "zipcode": "33125",
    "lat": 2972343.118077753,
    "lon": -8932003.541376159,
    "popup": "<strong>ZIP Code: 33125</strong><br>\n    \ud83d\udc69\u200d\u2695\ufe0f <strong>Nurses:</strong><br>- Nurse 25A<br>- Nurse 25B<br>\n    \ud83e\uddd1\u200d\u2695\ufe0f <strong>HHAs:</strong><br>- HHA 25X<br>- HHA 25Y"
  },
  {
    "zipcode": "33138",
    "lat": 2981036.6429934553,
    "lon": -8925707.888952836,
    "popup": "<strong>ZIP Code: 33138</strong><br>\n    \ud83d\udc69\u200d\u2695\ufe0f <strong>Nurses:</strong><br>- Nurse 38A<br>- Nurse 38B<br>\n    \ud83e\uddd1\u200d\u2695\ufe0f <strong>HHAs:</strong><br>- HHA 38X<br>- HHA 38Y"
  },
  {
    "zipcode": "33101",
    "lat": 2971772.1338769225,
    "lon": -8927683.237448242,
    "popup": "<strong>ZIP Code: 33101</strong><br>\n    \ud83d\udc69\u200d\u2695\ufe0f <strong>Nurses:</strong><br>- Nurse 01A<br>- Nurse 01B<br>\n    \ud83e\uddd1\u200d\u2695\ufe0f <strong>HHAs:</strong><br>- HHA 01X<br>- HHA 01Y"
  },
  {
    "zipcode": "33198",
    "lat": 2973687.875858313,
    "lon": -8941465.884519996,
    "popup": "<strong>ZIP Code: 33198</strong><br>\n    \ud83d\udc69\u200d\u2695\ufe0f <strong>Nurses:</strong><br>- Nurse 98A<br>- Nurse 98B<br>\n    \ud83e\uddd1\u200d\u2695\ufe0f <strong>HHAs:</strong><br>- HHA 98X<br>- HHA 98Y"
  },
  {
    "zipcode": "33031",
    "lat": 2940678.6138146087,
    "lon": -8978984.83451632,
    "popup": "<strong>ZIP Code: 33031</strong><br>\n    \ud83d\udc69\u200d\u2695\ufe0f <strong>Nurses:</strong><br>- Nurse 31A<br>- Nurse 31B<br>\n    \ud83e\uddd1\u200d\u2695\ufe0f <strong>HHAs:</strong><br>- HHA 31X<br>- HHA 31Y"
  },
  {
    "zipcode": "33136",
    "lat": 2972718.6367134065,
    "lon": -8928348.538205642,
    "popup": "<strong>ZIP Code: 33136</strong><br>\n    \ud83d\udc69\u200d\u2695\ufe0f <strong>Nurses:</strong><br>- Nurse 36A<br>- Nurse 36B<br>\n    \ud83e\uddd1\u200d\u2695\ufe0f <strong>HHAs:</strong><br>- HHA 36X<br>- HHA 36Y"
  },
  {
    "zipcode": "33127",
    "lat": 2975985.62511585,
    "lon": -8928454.710498191,
    "popup": "<strong>ZIP Code: 33127</strong><br>\n    \ud83d\udc69\u200d\u2695\ufe0f <strong>Nurses:</strong><br>- Nurse 27A<br>- Nurse 27B<br>\n    \ud83e\uddd1\u200d\u2695\ufe0f <strong>HHAs:</strong><br>- HHA 27X<br>- HHA 27Y"
  },
  {
    "zipcode": "33154",
    "lat": 2985343.9069025633,
    "lon": -8920155.645984353,
    "popup": "<strong>ZIP Code: 33154</strong><br>\n    \ud83d\udc69\u200d\u2695\ufe0f <strong>Nurses:</strong><br>- Nurse 54A<br>- Nurse 54B<br>\n    \ud83e\uddd1\u200d\u2695\ufe0f <strong>HHAs:</strong><br>- HHA 54X<br>- HHA 54Y"
  },
  {
    "zipcode": "33145",
    "lat": 2968552.8388758777,
    "lon": -8931688.625753047,
    "popup": "<strong>ZIP Code: 33145</strong><br>\n    \ud83d\udc69\u200d\u2695\ufe0f <strong>Nurses:</strong><br>- Nurse 45A<br>- Nurse 45B<br>\n    \ud83e\uddd1\u200d\u2695\ufe0f <strong>HHAs:</strong><br>- HHA 45X<br>- HHA 45Y"
  },
  {
    "zipcode": "33055",
    "lat": 2992635.124291343,
    "lon": -8936526.45363061,
    "popup": "<strong>ZIP Code: 33055</strong><br>\n    \ud83d\udc69\u200d\u2695\ufe0f <strong>Nurses:</strong><br>- Nurse 55A<br>- Nurse 55B<br>\n    \ud83e\uddd1\u200d\u2695\ufe0f <strong>HHAs:</strong><br>- HHA 55X<br>- HHA 55Y"
  },
  {
    "zipcode": "33039",
    "lat": 2935925.672288903,
    "lon": -8949048.70569627,
    "popup": "<strong>ZIP Code: 33039</strong><br>\n    \ud83d\udc69\u200d\u2695\ufe0f <strong>Nurses:</strong><br>- Nurse 39A<br>- Nurse 39B<br>\n    \ud83e\uddd1\u200d\u2695\ufe0f <strong>HHAs:</strong><br>- HHA 39X<br>- HHA 39Y"
  },
  {
    "zipcode": "33141",
    "lat": 2981273.0795301897,
    "lon": -8921671.313946756,
    "popup": "<strong>ZIP Code: 33141</strong><br>\n    \ud83d\udc69\u200d\u2695\ufe0f <strong>Nurses:</strong><br>- Nurse 41A<br>- Nurse 41B<br>\n    \ud83e\uddd1\u200d\u2695\ufe0f <strong>HHAs:</strong><br>- HHA 41X<br>- HHA 41Y"
  },
  {
    "zipcode": "33195",
    "lat": 2975372.941930583,
    "lon": -8941602.288553962,
    "popup": "<strong>ZIP Code: 33195</strong><br>\n    \ud83d\udc69\u200d\u2695\ufe0f <strong>Nurses:</strong><br>- Nurse 95A<br>- Nurse 95B<br>\n    \ud83e\uddd1\u200d\u2695\ufe0f <strong>HHAs:</strong><br>- HHA 95X<br>- HHA 95Y"
  },
  {
    "zipcode": "33153",
    "lat": 2982436.415010373,
    "lon": -8927064.4319988,
    "popup": "<strong>ZIP Code: 33153</strong><br>\n    \ud83d\udc69\u200d\u2695\ufe0f <strong>Nurses:</strong><br>- Nurse 53A<br>- Nurse 53B<br>\n    \ud83e\uddd1\u200d\u2695\ufe0f <strong>HHAs:</strong><br>- HHA 53X<br>- HHA 53Y"
  },
  {
    "zipcode": "33185",
    "lat": 2965589.4967049873,
    "lon": -8977750.595906563,
    "popup": "<strong>ZIP Code: 33185</strong><br>\n    \ud83d\udc69\u200d\u2695\ufe0f <strong>Nurses:</strong><br>- Nurse 85A<br>- Nurse 85B<br>\n    \ud83e\uddd1\u200d\u2695\ufe0f <strong>HHAs:</strong><br>- HHA 85X<br>- HHA 85Y"
  },
  {
    "zipcode": "33037",
    "lat": 2911684.6917905663,
    "lon": -8947774.168405762,
    "popup": "<strong>ZIP Code: 33037</strong><br>\n    \ud83d\udc69\u200d\u2695\ufe0f <strong>Nurses:</strong><br>- Nurse 37A<br>- Nurse 37B<br>\n    \ud83e\uddd1\u200d\u2695\ufe0f <strong>HHAs:</strong><br>- HHA 37X<br>- HHA 37Y"
  },
  {
    "zipcode": "33016",
    "lat": 2985946.721908776,
    "lon": -8942492.261533508,
    "popup": "<strong>ZIP Code: 33016</strong><br>\n    \ud83d\udc69\u200d\u2695\ufe0f <strong>Nurses:</strong><br>- Nurse 16A<br>- Nurse 16B<br>\n    \ud83e\uddd1\u200d\u2695\ufe0f <strong>HHAs:</strong><br>- HHA 16X<br>- HHA 16Y"
  },
  {
    "zipcode": "33256",
    "lat": 2957661.092304977,
    "lon": -8941560.775905365,
    "popup": "<strong>ZIP Code: 33256</strong><br>\n    \ud83d\udc69\u200d\u2695\ufe0f <strong>Nurses:</strong><br>- Nurse 56A<br>- Nurse 56B<br>\n    \ud83e\uddd1\u200d\u2695\ufe0f <strong>HHAs:</strong><br>- HHA 56X<br>- HHA 56Y"
  },
  {
    "zipcode": "33018",
    "lat": 2990863.2702061,
    "lon": -8974793.71243009,
    "popup": "<strong>ZIP Code: 33018</strong><br>\n    \ud83d\udc69\u200d\u2695\ufe0f <strong>Nurses:</strong><br>- Nurse 18A<br>- Nurse 18B<br>\n    \ud83e\uddd1\u200d\u2695\ufe0f <strong>HHAs:</strong><br>- HHA 18X<br>- HHA 18Y"
  },
  {
    "zipcode": "33189",
    "lat": 2946475.6706778505,
    "lon": -8943356.665317792,
    "popup": "<strong>ZIP Code: 33189</strong><br>\n    \ud83d\udc69\u200d\u2695\ufe0f <strong>Nurses:</strong><br>- Nurse 89A<br>- Nurse 89B<br>\n    \ud83e\uddd1\u200d\u2695\ufe0f <strong>HHAs:</strong><br>- HHA 89X<br>- HHA 89Y"
  },
  {
    "zipcode": "33181",
    "lat": 2986638.8252172917,
    "lon": -8922310.006528376,
    "popup": "<strong>ZIP Code: 33181</strong><br>\n    \ud83d\udc69\u200d\u2695\ufe0f <strong>Nurses:</strong><br>- Nurse 81A<br>- Nurse 81B<br>\n    \ud83e\uddd1\u200d\u2695\ufe0f <strong>HHAs:</strong><br>- HHA 81X<br>- HHA 81Y"
  },
  {
    "zipcode": "33032",
    "lat": 2940946.911362715,
    "lon": -8948312.775871808,
    "popup": "<strong>ZIP Code: 33032</strong><br>\n    \ud83d\udc69\u200d\u2695\ufe0f <strong>Nurses:</strong><br>- Nurse 32A<br>- Nurse 32B<br>\n    \ud83e\uddd1\u200d\u2695\ufe0f <strong>HHAs:</strong><br>- HHA 32X<br>- HHA 32Y"
  },
  {
    "zipcode": "33150",
    "lat": 2980801.4012842034,
    "lon": -8928621.916391587,
    "popup": "<strong>ZIP Code: 33150</strong><br>\n    \ud83d\udc69\u200d\u2695\ufe0f <strong>Nurses:</strong><br>- Nurse 50A<br>- Nurse 50B<br>\n    \ud83e\uddd1\u200d\u2695\ufe0f <strong>HHAs:</strong><br>- HHA 50X<br>- HHA 50Y"
  },
  {
    "zipcode": "33119",
    "lat": 2972417.7155526625,
    "lon": -8920312.46562558,
    "popup": "<strong>ZIP Code: 33119</strong><br>\n    \ud83d\udc69\u200d\u2695\ufe0f <strong>Nurses:</strong><br>- Nurse 19A<br>- Nurse 19B<br>\n    \ud83e\uddd1\u200d\u2695\ufe0f <strong>HHAs:</strong><br>- HHA 19X<br>- HHA 19Y"
  },
  {
    "zipcode": "33162",
    "lat": 2990245.5987942675,
    "lon": -8925391.528964838,
    "popup": "<strong>ZIP Code: 33162</strong><br>\n    \ud83d\udc69\u200d\u2695\ufe0f <strong>Nurses:</strong><br>- Nurse 62A<br>- Nurse 62B<br>\n    \ud83e\uddd1\u200d\u2695\ufe0f <strong>HHAs:</strong><br>- HHA 62X<br>- HHA 62Y"
  },
  {
    "zipcode": "33183",
    "lat": 2962016.3438742748,
    "lon": -8950730.437411126,
    "popup": "<strong>ZIP Code: 33183</strong><br>\n    \ud83d\udc69\u200d\u2695\ufe0f <strong>Nurses:</strong><br>- Nurse 83A<br>- Nurse 83B<br>\n    \ud83e\uddd1\u200d\u2695\ufe0f <strong>HHAs:</strong><br>- HHA 83X<br>- HHA 83Y"
  },
  {
    "zipcode": "33169",
    "lat": 2991981.5404181844,
    "lon": -8929462.212695355,
    "popup": "<strong>ZIP Code: 33169</strong><br>\n    \ud83d\udc69\u200d\u2695\ufe0f <strong>Nurses:</strong><br>- Nurse 69A<br>- Nurse 69B<br>\n    \ud83e\uddd1\u200d\u2695\ufe0f <strong>HHAs:</strong><br>- HHA 69X<br>- HHA 69Y"
  },
  {
    "zipcode": "33179",
    "lat": 2993905.7133843806,
    "lon": -8925563.859004498,
    "popup": "<strong>ZIP Code: 33179</strong><br>\n    \ud83d\udc69\u200d\u2695\ufe0f <strong>Nurses:</strong><br>- Nurse 79A<br>- Nurse 79B<br>\n    \ud83e\uddd1\u200d\u2695\ufe0f <strong>HHAs:</strong><br>- HHA 79X<br>- HHA 79Y"
  },
  {
    "zipcode": "33190",
    "lat": 2944574.582257799,
    "lon": -8942969.572162872,
    "popup": "<strong>ZIP Code: 33190</strong><br>\n    \ud83d\udc69\u200d\u2695\ufe0f <strong>Nurses:</strong><br>- Nurse 90A<br>- Nurse 90B<br>\n    \ud83e\uddd1\u200d\u2695\ufe0f <strong>HHAs:</strong><br>- HHA 90X<br>- HHA 90Y"
  },
  {
    "zipcode": "33158",
    "lat": 2954323.927719851,
    "lon": -8939378.311667783,
    "popup": "<strong>ZIP Code: 33158</strong><br>\n    \ud83d\udc69\u200d\u2695\ufe0f <strong>Nurses:</strong><br>- Nurse 58A<br>- Nurse 58B<br>\n    \ud83e\uddd1\u200d\u2695\ufe0f <strong>HHAs:</strong><br>- HHA 58X<br>- HHA 58Y"
  },
  {
    "zipcode": "33178",
    "lat": 2980974.8235437083,
    "lon": -8973539.886798851,
    "popup": "<strong>ZIP Code: 33178</strong><br>\n    \ud83d\udc69\u200d\u2695\ufe0f <strong>Nurses:</strong><br>- Nurse 78A<br>- Nurse 78B<br>\n    \ud83e\uddd1\u200d\u2695\ufe0f <strong>HHAs:</strong><br>- HHA 78X<br>- HHA 78Y"
  },
  {
    "zipcode": "33167",
    "lat": 2984928.9619152714,
    "lon": -8931870.479389522,
    "popup": "<strong>ZIP Code: 33167</strong><br>\n    \ud83d\udc69\u200d\u2695\ufe0f <strong>Nurses:</strong><br>- Nurse 67A<br>- Nurse 67B<br>\n    \ud83e\uddd1\u200d\u2695\ufe0f <strong>HHAs:</strong><br>- HHA 67X<br>- HHA 67Y"
  },
  {
    "zipcode": "33015",
    "lat": 2991792.8884981163,
    "lon": -8940935.177305296,
    "popup": "<strong>ZIP Code: 33015</strong><br>\n    \ud83d\udc69\u200d\u2695\ufe0f <strong>Nurses:</strong><br>- Nurse 15A<br>- Nurse 15B<br>\n    \ud83e\uddd1\u200d\u2695\ufe0f <strong>HHAs:</strong><br>- HHA 15X<br>- HHA 15Y"
  },
  {
    "zipcode": "33187",
    "lat": 2948920.243669169,
    "lon": -8978131.586698595,
    "popup": "<strong>ZIP Code: 33187</strong><br>\n    \ud83d\udc69\u200d\u2695\ufe0f <strong>Nurses:</strong><br>- Nurse 87A<br>- Nurse 87B<br>\n    \ud83e\uddd1\u200d\u2695\ufe0f <strong>HHAs:</strong><br>- HHA 87X<br>- HHA 87Y"
  },
  {
    "zipcode": "33180",
    "lat": 2994264.4733116315,
    "lon": -8921304.564271044,
    "popup": "<strong>ZIP Code: 33180</strong><br>\n    \ud83d\udc69\u200d\u2695\ufe0f <strong>Nurses:</strong><br>- Nurse 80A<br>- Nurse 80B<br>\n    \ud83e\uddd1\u200d\u2695\ufe0f <strong>HHAs:</strong><br>- HHA 80X<br>- HHA 80Y"
  },
  {
    "zipcode": "33175",
    "lat": 2966115.701492581,
    "lon": -8950866.621225514,
    "popup": "<strong>ZIP Code: 33175</strong><br>\n    \ud83d\udc69\u200d\u2695\ufe0f <strong>Nurses:</strong><br>- Nurse 75A<br>- Nurse 75B<br>\n    \ud83e\uddd1\u200d\u2695\ufe0f <strong>HHAs:</strong><br>- HHA 75X<br>- HHA 75Y"
  },
  {
    "zipcode": "33018",
    "lat": 2986470.2440386484,
    "lon": -8940563.542102644,
    "popup": "<strong>ZIP Code: 33018</strong><br>\n    \ud83d\udc69\u200d\u2695\ufe0f <strong>Nurses:</strong><br>- Nurse 18A<br>- Nurse 18B<br>\n    \ud83e\uddd1\u200d\u2695\ufe0f <strong>HHAs:</strong><br>- HHA 18X<br>- HHA 18Y"
  },
  {
    "zipcode": "33192",
    "lat": 2972691.401484216,
    "lon": -8976212.242763752,
    "popup": "<strong>ZIP Code: 33192</strong><br>\n    \ud83d\udc69\u200d\u2695\ufe0f <strong>Nurses:</strong><br>- Nurse 92A<br>- Nurse 92B<br>\n    \ud83e\uddd1\u200d\u2695\ufe0f <strong>HHAs:</strong><br>- HHA 92X<br>- HHA 92Y"
  },
  {
    "zipcode": "33034",
    "lat": 2915693.908376046,
    "lon": -8979391.500681238,
    "popup": "<strong>ZIP Code: 33034</strong><br>\n    \ud83d\udc69\u200d\u2695\ufe0f <strong>Nurses:</strong><br>- Nurse 34A<br>- Nurse 34B<br>\n    \ud83e\uddd1\u200d\u2695\ufe0f <strong>HHAs:</strong><br>- HHA 34X<br>- HHA 34Y"
  },
  {
    "zipcode": "33173",
    "lat": 2962208.686036438,
    "lon": -8945349.287443783,
    "popup": "<strong>ZIP Code: 33173</strong><br>\n    \ud83d\udc69\u200d\u2695\ufe0f <strong>Nurses:</strong><br>- Nurse 73A<br>- Nurse 73B<br>\n    \ud83e\uddd1\u200d\u2695\ufe0f <strong>HHAs:</strong><br>- HHA 73X<br>- HHA 73Y"
  },
  {
    "zipcode": "33199",
    "lat": 2969466.5311017716,
    "lon": -8947456.37571576,
    "popup": "<strong>ZIP Code: 33199</strong><br>\n    \ud83d\udc69\u200d\u2695\ufe0f <strong>Nurses:</strong><br>- Nurse 99A<br>- Nurse 99B<br>\n    \ud83e\uddd1\u200d\u2695\ufe0f <strong>HHAs:</strong><br>- HHA 99X<br>- HHA 99Y"
  },
  {
    "zipcode": "33010",
    "lat": 2978293.2416977077,
    "lon": -8936640.9790752,
    "popup": "<strong>ZIP Code: 33010</strong><br>\n    \ud83d\udc69\u200d\u2695\ufe0f <strong>Nurses:</strong><br>- Nurse 10A<br>- Nurse 10B<br>\n    \ud83e\uddd1\u200d\u2695\ufe0f <strong>HHAs:</strong><br>- HHA 10X<br>- HHA 10Y"
  },
  {
    "zipcode": "33147",
    "lat": 2980648.073361781,
    "lon": -8932114.809482604,
    "popup": "<strong>ZIP Code: 33147</strong><br>\n    \ud83d\udc69\u200d\u2695\ufe0f <strong>Nurses:</strong><br>- Nurse 47A<br>- Nurse 47B<br>\n    \ud83e\uddd1\u200d\u2695\ufe0f <strong>HHAs:</strong><br>- HHA 47X<br>- HHA 47Y"
  },
  {
    "zipcode": "33130",
    "lat": 2970400.6556792906,
    "lon": -8928188.251261126,
    "popup": "<strong>ZIP Code: 33130</strong><br>\n    \ud83d\udc69\u200d\u2695\ufe0f <strong>Nurses:</strong><br>- Nurse 30A<br>- Nurse 30B<br>\n    \ud83e\uddd1\u200d\u2695\ufe0f <strong>HHAs:</strong><br>- HHA 30X<br>- HHA 30Y"
  },
  {
    "zipcode": "33132",
    "lat": 2971717.3628985565,
    "lon": -8925059.300510414,
    "popup": "<strong>ZIP Code: 33132</strong><br>\n    \ud83d\udc69\u200d\u2695\ufe0f <strong>Nurses:</strong><br>- Nurse 32A<br>- Nurse 32B<br>\n    \ud83e\uddd1\u200d\u2695\ufe0f <strong>HHAs:</strong><br>- HHA 32X<br>- HHA 32Y"
  },
  {
    "zipcode": "33194",
    "lat": 2969388.6624836354,
    "lon": -8982204.279990878,
    "popup": "<strong>ZIP Code: 33194</strong><br>\n    \ud83d\udc69\u200d\u2695\ufe0f <strong>Nurses:</strong><br>- Nurse 94A<br>- Nurse 94B<br>\n    \ud83e\uddd1\u200d\u2695\ufe0f <strong>HHAs:</strong><br>- HHA 94X<br>- HHA 94Y"
  },
  {
    "zipcode": "33012",
    "lat": 2982468.4377314616,
    "lon": -8939218.016130133,
    "popup": "<strong>ZIP Code: 33012</strong><br>\n    \ud83d\udc69\u200d\u2695\ufe0f <strong>Nurses:</strong><br>- Nurse 12A<br>- Nurse 12B<br>\n    \ud83e\uddd1\u200d\u2695\ufe0f <strong>HHAs:</strong><br>- HHA 12X<br>- HHA 12Y"
  },
  {
    "zipcode": "33056",
    "lat": 2992768.469977032,
    "lon": -8932909.055356832,
    "popup": "<strong>ZIP Code: 33056</strong><br>\n    \ud83d\udc69\u200d\u2695\ufe0f <strong>Nurses:</strong><br>- Nurse 56A<br>- Nurse 56B<br>\n    \ud83e\uddd1\u200d\u2695\ufe0f <strong>HHAs:</strong><br>- HHA 56X<br>- HHA 56Y"
  },
  {
    "zipcode": "33195",
    "lat": 2978429.962326834,
    "lon": -8940748.75330696,
    "popup": "<strong>ZIP Code: 33195</strong><br>\n    \ud83d\udc69\u200d\u2695\ufe0f <strong>Nurses:</strong><br>- Nurse 95A<br>- Nurse 95B<br>\n    \ud83e\uddd1\u200d\u2695\ufe0f <strong>HHAs:</strong><br>- HHA 95X<br>- HHA 95Y"
  },
  {
    "zipcode": "33128",
    "lat": 2971446.2500645146,
    "lon": -8928283.64530189,
    "popup": "<strong>ZIP Code: 33128</strong><br>\n    \ud83d\udc69\u200d\u2695\ufe0f <strong>Nurses:</strong><br>- Nurse 28A<br>- Nurse 28B<br>\n    \ud83e\uddd1\u200d\u2695\ufe0f <strong>HHAs:</strong><br>- HHA 28X<br>- HHA 28Y"
  },
  {
    "zipcode": "33186",
    "lat": 2956511.3968189484,
    "lon": -8951209.34403809,
    "popup": "<strong>ZIP Code: 33186</strong><br>\n    \ud83d\udc69\u200d\u2695\ufe0f <strong>Nurses:</strong><br>- Nurse 86A<br>- Nurse 86B<br>\n    \ud83e\uddd1\u200d\u2695\ufe0f <strong>HHAs:</strong><br>- HHA 86X<br>- HHA 86Y"
  },
  {
    "zipcode": "33152",
    "lat": 2973597.5530855847,
    "lon": -8940694.004300922,
    "popup": "<strong>ZIP Code: 33152</strong><br>\n    \ud83d\udc69\u200d\u2695\ufe0f <strong>Nurses:</strong><br>- Nurse 52A<br>- Nurse 52B<br>\n    \ud83e\uddd1\u200d\u2695\ufe0f <strong>HHAs:</strong><br>- HHA 52X<br>- HHA 52Y"
  },
  {
    "zipcode": "33191",
    "lat": 2973133.3893526318,
    "lon": -8942644.839544753,
    "popup": "<strong>ZIP Code: 33191</strong><br>\n    \ud83d\udc69\u200d\u2695\ufe0f <strong>Nurses:</strong><br>- Nurse 91A<br>- Nurse 91B<br>\n    \ud83e\uddd1\u200d\u2695\ufe0f <strong>HHAs:</strong><br>- HHA 91X<br>- HHA 91Y"
  },
  {
    "zipcode": "33129",
    "lat": 2968490.098738821,
    "lon": -8928055.84169563,
    "popup": "<strong>ZIP Code: 33129</strong><br>\n    \ud83d\udc69\u200d\u2695\ufe0f <strong>Nurses:</strong><br>- Nurse 29A<br>- Nurse 29B<br>\n    \ud83e\uddd1\u200d\u2695\ufe0f <strong>HHAs:</strong><br>- HHA 29X<br>- HHA 29Y"
  },
  {
    "zipcode": "33192",
    "lat": 2973573.338433588,
    "lon": -8948000.986671612,
    "popup": "<strong>ZIP Code: 33192</strong><br>\n    \ud83d\udc69\u200d\u2695\ufe0f <strong>Nurses:</strong><br>- Nurse 92A<br>- Nurse 92B<br>\n    \ud83e\uddd1\u200d\u2695\ufe0f <strong>HHAs:</strong><br>- HHA 92X<br>- HHA 92Y"
  },
  {
    "zipcode": "33035",
    "lat": 2922722.315850232,
    "lon": -8949813.31269255,
    "popup": "<strong>ZIP Code: 33035</strong><br>\n    \ud83d\udc69\u200d\u2695\ufe0f <strong>Nurses:</strong><br>- Nurse 35A<br>- Nurse 35B<br>\n    \ud83e\uddd1\u200d\u2695\ufe0f <strong>HHAs:</strong><br>- HHA 35X<br>- HHA 35Y"
  },
  {
    "zipcode": "33014",
    "lat": 2987368.875245752,
    "lon": -8939503.605900645,
    "popup": "<strong>ZIP Code: 33014</strong><br>\n    \ud83d\udc69\u200d\u2695\ufe0f <strong>Nurses:</strong><br>- Nurse 14A<br>- Nurse 14B<br>\n    \ud83e\uddd1\u200d\u2695\ufe0f <strong>HHAs:</strong><br>- HHA 14X<br>- HHA 14Y"
  },
  {
    "zipcode": "33144",
    "lat": 2969866.624875744,
    "lon": -8940329.47445728,
    "popup": "<strong>ZIP Code: 33144</strong><br>\n    \ud83d\udc69\u200d\u2695\ufe0f <strong>Nurses:</strong><br>- Nurse 44A<br>- Nurse 44B<br>\n    \ud83e\uddd1\u200d\u2695\ufe0f <strong>HHAs:</strong><br>- HHA 44X<br>- HHA 44Y"
  }
]